NORAD_CAT_ID,OBJECT_NAME,OBJECT_TYPE,EPOCH,MEAN_MOTION,ECCENTRICITY,INCLINATION,RA_OF_ASC_NODE,ARG_OF_PERICENTER,MEAN_ANOMALY,BSTAR,MEAN_MOTION_DOT,MEAN_MOTION_DDOT,TLE_LINE0,TLE_LINE1,TLE_LINE2,SEMIMAJOR_AXIS,PERIOD,APOGEE,PERIGEE,DECAYED
52482.0,STARLINK-3813,PAYLOAD,2024-06-22 14:22:21,15.08837505,0.0001024,53.2173,335.264,71.3277,288.7826,7.7041e-05,9.38e-06,0.0,0 STARLINK-3813,1 52482U 22049AH  24174.59885437  .00000938  00000-0  77041-4 0  9998,2 52482  53.2173 335.2640 0001024  71.3277 288.7826 15.08837505118026,6917.888,95.438,540.461,539.045,0.0
52482.0,STARLINK-3813,PAYLOAD,2024-06-22 20:43:52,15.08850442,0.0001155,53.2185,334.0716,91.636,268.4765,-2.066e-05,-6.17e-06,0.0,0 STARLINK-3813,1 52482U 22049AH  24174.86380735 -.00000617  00000-0 -20660-4 0  9990,2 52482  53.2185 334.0716 0001155  91.6360 268.4765 15.08850442118227,6917.848,95.437,540.512,538.914,0.0
52482.0,STARLINK-3813,PAYLOAD,2024-06-23 11:02:21,15.08840222,0.0001227,53.2183,331.3937,101.5945,258.5185,-4.1097e-06,-3.53e-06,0.0,0 STARLINK-3813,1 52482U 22049AH  24175.45997517 -.00000353  00000-0 -41097-5 0  9993,2 52482  53.2183 331.3937 0001227 101.5945 258.5185 15.08840222118311,6917.88,95.438,540.594,538.896,0.0
52482.0,STARLINK-3813,PAYLOAD,2024-06-23 14:13:07,15.08839482,0.0001183,53.2176,330.7986,105.3713,254.741,8.1406e-05,1.008e-05,0.0,0 STARLINK-3813,1 52482U 22049AH  24175.59245260  .00001008  00000-0  81406-4 0  9992,2 52482  53.2176 330.7986 0001183 105.3713 254.7410 15.08839482118175,6917.882,95.438,540.565,538.929,0.0
52482.0,STARLINK-3813,PAYLOAD,2024-06-23 17:23:53,15.08842849,0.0001375,53.2192,330.203,110.6717,249.4423,9.7202e-05,1.26e-05,0.0,0 STARLINK-3813,1 52482U 22049AH  24175.72493004  .00001260  00000-0  97202-4 0  9999,2 52482  53.2192 330.2030 0001375 110.6717 249.4423 15.08842849118192,6917.872,95.437,540.688,538.785,0.0
52482.0,STARLINK-3813,PAYLOAD,2024-06-24 14:03:54,15.08842602,0.0001078,53.2196,326.337,102.0894,258.0219,2.6671e-05,1.37e-06,0.0,0 STARLINK-3813,1 52482U 22049AH  24176.58605275  .00000137  00000-0  26671-4 0  9993,2 52482  53.2196 326.3370 0001078 102.0894 258.0219 15.08842602118321,6917.872,95.437,540.483,538.992,0.0
52482.0,STARLINK-3813,PAYLOAD,2024-06-24 17:14:41,15.08844696,0.0001073,53.2193,325.7427,90.5554,269.5561,4.8632e-05,4.86e-06,0.0,0 STARLINK-3813,1 52482U 22049AH  24176.71853104  .00000486  00000-0  48632-4 0  9992,2 52482  53.2193 325.7427 0001073  90.5554 269.5561 15.08844696118347,6917.866,95.437,540.473,538.989,0.0
52482.0,STARLINK-3813,PAYLOAD,2024-06-25 13:54:42,15.08839419,0.0001361,53.2198,321.8841,107.3838,252.7303,1.7588e-05,-8e-08,0.0,0 STARLINK-3813,1 52482U 22049AH  24177.57965613 -.00000008  00000-0  17588-4 0  9993,2 52482  53.2198 321.8841 0001361 107.3838 252.7303 15.08839419118470,6917.882,95.438,540.689,538.806,0.0
52482.0,STARLINK-3813,PAYLOAD,2024-06-25 17:05:28,15.08840099,0.0001526,53.2203,321.2828,71.2951,288.8207,4.7851e-05,4.74e-06,0.0,0 STARLINK-3813,1 52482U 22049AH  24177.71213639  .00000474  00000-0  47851-4 0  9995,2 52482  53.2203 321.2828 0001526  71.2951 288.8207 15.08840099118653,6917.88,95.438,540.801,538.689,0.0
52482.0,STARLINK-3813,PAYLOAD,2024-06-26 02:37:47,15.08845145,0.0001266,53.2196,319.5016,84.225,275.8887,-3.0786e-06,-3.37e-06,0.0,0 STARLINK-3813,1 52482U 22049AH  24178.10957297 -.00000337  00000-0 -30786-5 0  9994,2 52482  53.2196 319.5016 0001266  84.2250 275.8887 15.08845145118556,6917.865,95.437,540.605,538.854,0.0
52482.0,STARLINK-3813,PAYLOAD,2024-06-27 13:36:16,15.08836769,0.0001159,53.2188,312.9592,80.2768,279.8355,1.2837e-06,-2.67e-06,0.0,0 STARLINK-3813,1 52482U 22049AH  24179.56686190 -.00000267  00000-0  12837-5 0  9994,2 52482  53.2188 312.9592 0001159  80.2768 279.8355 15.08836769118932,6917.89,95.438,540.557,538.953,0.0
52482.0,STARLINK-3813,PAYLOAD,2024-06-27 15:11:40,15.08836136,0.0001181,53.2188,312.6644,79.5481,280.5644,-4.8614e-06,-3.65e-06,0.0,0 STARLINK-3813,1 52482U 22049AH  24179.63310275 -.00000365  00000-0 -48614-5 0  9992,2 52482  53.2188 312.6644 0001181  79.5481 280.5644 15.08836136118786,6917.892,95.438,540.574,538.94,0.0
52482.0,STARLINK-3813,PAYLOAD,2024-06-28 13:27:03,15.08847866,0.0001471,53.2188,308.5002,87.0758,273.0402,0.00016708,2.373e-05,0.0,0 STARLINK-3813,1 52482U 22049AH  24180.56045282  .00002373  00000-0  16708-3 0  9995,2 52482  53.2188 308.5002 0001471  87.0758 273.0402 15.08847866119086,6917.856,95.437,540.739,538.704,0.0
52482.0,STARLINK-3813,PAYLOAD,2024-06-28 15:02:25,15.08851264,0.0001493,53.2187,308.199,99.857,260.2591,0.00019306,2.787e-05,0.0,0 STARLINK-3813,1 52482U 22049AH  24180.62668888  .00002787  00000-0  19306-3 0  9991,2 52482  53.2187 308.1990 0001493  99.8570 260.2591 15.08851264118931,6917.846,95.437,540.744,538.678,0.0
52482.0,STARLINK-3813,PAYLOAD,2024-06-29 13:17:50,15.08837315,0.0001222,53.2189,304.0403,96.4224,263.6908,7.1719e-05,8.54e-06,0.0,0 STARLINK-3813,1 52482U 22049AH  24181.55406128  .00000854  00000-0  71719-4 0  9991,2 52482  53.2189 304.0403 0001222  96.4224 263.6908 15.08837315119230,6917.889,95.438,540.599,538.908,0.0
52482.0,STARLINK-3813,PAYLOAD,2024-06-29 14:53:14,15.08836438,0.0001333,53.2186,303.7422,85.0167,275.0977,7.7885e-05,9.52e-06,0.0,0 STARLINK-3813,1 52482U 22049AH  24181.62030232  .00000952  00000-0  77885-4 0  9997,2 52482  53.2186 303.7422 0001333  85.0167 275.0977 15.08836438119088,6917.891,95.438,540.678,538.834,0.0
52482.0,STARLINK-3813,PAYLOAD,2024-06-30 14:44:00,15.08845328,0.0001214,53.2176,299.2845,89.2427,270.8704,5.9411e-05,6.58e-06,0.0,0 STARLINK-3813,1 52482U 22049AH  24182.61389706  .00000658  00000-0  59411-4 0  9998,2 52482  53.2176 299.2845 0001214  89.2427 270.8704 15.08845328119234,6917.864,95.437,540.569,538.889,0.0
52482.0,STARLINK-3813,PAYLOAD,2024-06-30 17:54:46,15.08855957,0.0001281,53.2177,298.6857,92.226,267.8878,-5.7624e-07,-2.97e-06,0.0,0 STARLINK-3813,1 52482U 22049AH  24182.74637156 -.00000297  00000-0 -57624-6 0  9994,2 52482  53.2177 298.6857 0001281  92.2260 267.8878 15.08855957119411,6917.832,95.437,540.583,538.81,0.0
52482.0,STARLINK-3813,PAYLOAD,2024-07-01 12:59:24,15.08839559,0.0001427,53.2179,295.118,115.0769,245.0372,0.00010626,1.404e-05,0.0,0 STARLINK-3813,1 52482U 22049AH  24183.54125921  .00001404  00000-0  10626-3 0  9992,2 52482  53.2179 295.1180 0001427 115.0769 245.0372 15.08839559119534,6917.882,95.438,540.734,538.76,0.0
52482.0,STARLINK-3813,PAYLOAD,2024-07-01 14:34:47,15.0884073,0.0001083,53.2163,294.8224,98.9322,261.1793,0.00015718,2.215e-05,0.0,0 STARLINK-3813,1 52482U 22049AH  24183.60749764  .00002215  00000-0  15718-3 0  9994,2 52482  53.2163 294.8224 0001083  98.9322 261.1793 15.08840730119386,6917.878,95.438,540.492,538.994,0.0
52482.0,STARLINK-3813,PAYLOAD,2024-07-02 12:50:12,15.08833213,0.0001351,53.2176,290.6602,109.352,250.7618,3.0987e-06,-2.39e-06,0.0,0 STARLINK-3813,1 52482U 22049AH  24184.53486897 -.00000239  00000-0  30987-5 0  9994,2 52482  53.2176 290.6602 0001351 109.3520 250.7618 15.08833213119680,6917.901,95.438,540.701,538.832,0.0
52482.0,STARLINK-3813,PAYLOAD,2024-07-02 14:25:35,15.08833445,0.0001276,53.2174,290.3652,111.8503,248.2625,3.248e-05,2.29e-06,0.0,0 STARLINK-3813,1 52482U 22049AH  24184.60110854  .00000229  00000-0  32480-4 0  9996,2 52482  53.2174 290.3652 0001276 111.8503 248.2625 15.08833445119536,6917.9,95.438,540.648,538.883,0.0
52482.0,STARLINK-3813,PAYLOAD,2024-07-03 15:51:45,15.08839443,9.21e-05,53.2154,285.6043,96.4046,263.7051,6.6797e-05,7.75e-06,0.0,0 STARLINK-3813,1 52482U 22049AH  24185.66094742  .00000775  00000-0  66797-4 0  9994,2 52482  53.2154 285.6043 0000921  96.4046 263.7051 15.08839443119855,6917.882,95.438,540.384,539.11,0.0
52482.0,STARLINK-3813,PAYLOAD,2024-07-04 14:07:09,15.08843519,0.0001141,53.2171,281.4408,78.7716,281.3405,0.00015602,2.196e-05,0.0,0 STARLINK-3813,1 52482U 22049AH  24186.58830597  .00002196  00000-0  15602-3 0  9999,2 52482  53.2171 281.4408 0001141  78.7716 281.3405 15.08843519119831,6917.87,95.437,540.524,538.945,0.0
52482.0,STARLINK-3813,PAYLOAD,2024-07-04 23:39:28,15.08846179,0.0001156,53.2171,279.6579,80.1878,279.9245,0.0001742,2.486e-05,0.0,0 STARLINK-3813,1 52482U 22049AH  24186.98574388  .00002486  00000-0  17420-3 0  9998,2 52482  53.2171 279.6579 0001156  80.1878 279.9245 15.08846179120057,6917.862,95.437,540.526,538.927,0.0
52482.0,STARLINK-3813,PAYLOAD,2024-07-05 12:22:33,15.08849433,0.0001046,53.2154,277.2779,84.8239,275.2872,0.0002471,3.648e-05,0.0,0 STARLINK-3813,1 52482U 22049AH  24187.51566258  .00003648  00000-0  24710-3 0  9996,2 52482  53.2154 277.2779 0001046  84.8239 275.2872 15.08849433119974,6917.852,95.437,540.44,538.993,0.0
52482.0,STARLINK-3813,PAYLOAD,2024-07-06 05:51:48,15.08840407,0.0001995,53.2167,274.0087,78.5076,281.614,3.4757e-05,2.65e-06,0.0,0 STARLINK-3813,1 52482U 22049AH  24188.24430927  .00000265  00000-0  34757-4 0  9995,2 52482  53.2167 274.0087 0001995  78.5076 281.6140 15.08840407120240,6917.879,95.438,541.124,538.364,0.0
52482.0,STARLINK-3813,PAYLOAD,2024-07-06 12:13:20,15.0883568,0.0001588,53.2182,272.8178,98.251,261.8662,-9.8758e-05,-1.859e-05,0.0,0 STARLINK-3813,1 52482U 22049AH  24188.50927019 -.00001859  00000-0 -98758-4 0  9990,2 52482  53.2182 272.8178 0001588  98.2510 261.8662 15.08835680120127,6917.894,95.438,540.857,538.66,0.0
52482.0,STARLINK-3813,PAYLOAD,2024-07-06 15:24:07,15.08839947,0.000141,53.2175,272.2221,86.8924,273.223,-3.6671e-05,-8.72e-06,0.0,0 STARLINK-3813,1 52482U 22049AH  24188.64175065 -.00000872  00000-0 -36671-4 0  9991,2 52482  53.2175 272.2221 0001410  86.8924 273.2230 15.08839947120148,6917.881,95.438,540.721,538.77,0.0
52482.0,STARLINK-3813,PAYLOAD,2024-07-07 10:28:44,15.08843309,0.0001409,53.2173,268.6536,96.3171,263.7982,3.2211e-05,2.25e-06,0.0,0 STARLINK-3813,1 52482U 22049AH  24189.43662656  .00000225  00000-0  32211-4 0  9992,2 52482  53.2173 268.6536 0001409  96.3171 263.7982 15.08843309120428,6917.87,95.437,540.71,538.761,0.0
